IRIDIUM 63              
1 25286U 98021B   25217.56481824  .00000307  00000+0  97888-4 0  9991
2 25286  86.3936  61.4057 0002282  90.7809 269.3650 14.36574093431203
IRIDIUM 69              
1 25319U 98026A   25217.56476493  .00000408  00000+0  12094-3 0  9996
2 25319  86.3929  74.5486 0001777 160.5204 199.6064 14.41006170430177
IRIDIUM 71              
1 25320U 98026B   25217.56519091  .00000328  00000+0  95503-4 0  9998
2 25320  86.3928  69.2296 0000557   9.3819 350.7391 14.41189871430954
IRIDIUM 73              
1 25344U 98032C   25217.48278424  .00000528  00000+0  12632-3 0  9997
2 25344  86.4408  25.8688 0002254 108.2766 251.8685 14.51759121437713
IRIDIUM 82              
1 25467U 98051A   25217.56637940  .00024391  00000+0  65360-3 0  9995
2 25467  86.3633  85.4186 0084182 108.2105 252.8332 15.34242498431529
